NORAD_CAT_ID,OBJECT_NAME,OBJECT_TYPE,EPOCH,MEAN_MOTION,ECCENTRICITY,INCLINATION,RA_OF_ASC_NODE,ARG_OF_PERICENTER,MEAN_ANOMALY,BSTAR,MEAN_MOTION_DOT,MEAN_MOTION_DDOT,TLE_LINE0,TLE_LINE1,TLE_LINE2,SEMIMAJOR_AXIS,PERIOD,APOGEE,PERIGEE,DECAYED
51961.0,STARLINK-3689,PAYLOAD,2022-07-16 22:00:00,15.08848952,0.0002093,53.2145,247.6859,40.5665,309.7067,0.0012093,0.00019015,0.0,0 STARLINK-3689,1 51961U 22025F   22197.91667824  .00019015  00000-0  12093-2 0  9990,2 51961  53.2145 247.6859 0002093  40.5665 309.7067 15.08848952 21257,6917.853,95.437,541.1659999999998,538.27,0.0
51961.0,STARLINK-3689,PAYLOAD,2022-07-17 14:00:01,15.08824477,0.0002219,53.2144,244.6942,35.2768,338.2319,0.002416,0.00038357,0.0,0 STARLINK-3689,1 51961U 22025F   22198.58334491  .00038357  00000-0  24160-2 0  9993,2 51961  53.2144 244.6942 0002219  35.2768 338.2319 15.08824477 21355,6917.928000000001,95.439,541.328,538.258,0.0
51961.0,STARLINK-3689,PAYLOAD,2022-07-17 22:00:00,15.08823527,0.0002056,53.2156,243.1916,37.0421,348.0723,-0.00010618,-1.977e-05,0.0,0 STARLINK-3689,1 51961U 22025F   22198.91667824 -.00001977  00000-0 -10618-3 0  9993,2 51961  53.2156 243.1916 0002056  37.0421 348.0723 15.08823527  1304,6917.931,95.439,541.2180000000002,538.373,0.0
51961.0,STARLINK-3689,PAYLOAD,2022-07-18 14:00:01,15.08805869,0.0002258,53.2144,240.205,33.8249,14.4284,0.00282,0.00044837,0.0,0 STARLINK-3689,1 51961U 22025F   22199.58334491  .00044837  00000-0  28200-2 0  9993,2 51961  53.2144 240.2050 0002258  33.8249  14.4284 15.08805869  1309,6917.985,95.44,541.4119999999998,538.288,0.0
51961.0,STARLINK-3689,PAYLOAD,2022-07-18 22:00:00,15.08814185,0.0002076,53.2147,238.7066,37.0459,22.7886,0.0019454,0.00030787,0.0,0 STARLINK-3689,1 51961U 22025F   22199.91667824  .00030787  00000-0  19454-2 0  9999,2 51961  53.2147 238.7066 0002076  37.0459  22.7886 15.08814185  1309,6917.959,95.439,541.26,538.388,0.0
51961.0,STARLINK-3689,PAYLOAD,2022-07-19 06:00:00,15.08854337,0.0002211,53.2149,237.211,38.4541,32.9539,-0.0016927,-0.00027138,0.0,0 STARLINK-3689,1 51961U 22025F   22200.25001157 -.00027138  00000-0 -16927-2 0  9990,2 51961  53.2149 237.2110 0002211  38.4541  32.9539 15.08854337 21609,6917.837,95.437,541.231,538.172,0.0
51961.0,STARLINK-3689,PAYLOAD,2022-07-19 14:00:01,15.08824103,0.0002368,53.2149,235.7155,34.6159,48.3934,0.0026359,0.00041895,0.0,0 STARLINK-3689,1 51961U 22025F   22200.58334491  .00041895  00000-0  26359-2 0  9990,2 51961  53.2149 235.7155 0002368  34.6159  48.3934 15.08824103  1300,6917.929,95.439,541.432,538.156,0.0
51961.0,STARLINK-3689,PAYLOAD,2022-07-19 22:00:00,15.0881258,0.0002193,53.2161,234.2121,35.8035,58.8114,0.0057499,0.00092355,0.0,0 STARLINK-3689,1 51961U 22025F   22200.91667824  .00092355  00000-0  57499-2 0  9992,2 51961  53.2161 234.2121 0002193  35.8035  58.8114 15.08812580  1305,6917.964,95.439,541.346,538.312,0.0
51961.0,STARLINK-3689,PAYLOAD,2022-07-20 14:00:01,15.08863221,0.0002429,53.2154,231.226,34.8818,82.95700000000002,-0.0006331,-0.00010357,0.0,0 STARLINK-3689,1 51961U 22025F   22201.58334491 -.00010357  00000-0 -63310-3 0  9991,2 51961  53.2154 231.2260 0002429  34.8818  82.9570 15.08863221  1300,6917.809,95.436,541.355,537.994,0.0
51961.0,STARLINK-3689,PAYLOAD,2022-07-20 22:00:01,15.088254699999998,0.0002171999999999,53.2157,229.7278,36.6403,92.8858,0.0015366,0.00024242,0.0,0 STARLINK-3689,1 51961U 22025F   22201.91668981  .00024242  00000-0  15366-2 0  9995,2 51961  53.2157 229.7278 0002172  36.6403  92.8858 15.08825470  1302,6917.925,95.438,541.2919999999998,538.2869999999998,0.0
51961.0,STARLINK-3689,PAYLOAD,2022-07-21 06:00:00,15.08855377,0.0002306,53.2159,228.2324,37.63,103.3995,-0.0017105999999999,-0.00027422,0.0,0 STARLINK-3689,1 51961U 22025F   22202.25001157 -.00027422  00000-0 -17106-2 0  9998,2 51961  53.2159 228.2324 0002306  37.6300 103.3995 15.08855377 21914,6917.833000000001,95.437,541.294,538.1030000000002,0.0
51961.0,STARLINK-3689,PAYLOAD,2022-07-21 14:00:01,15.08833532,0.000244,53.2156,226.7367,34.7119,117.9801,0.001417,0.00022332,0.0,0 STARLINK-3689,1 51961U 22025F   22202.58335648  .00022332  00000-0  14170-2 0  9990,2 51961  53.2156 226.7367 0002440  34.7119 117.9801 15.08833532  1303,6917.9,95.438,541.453,538.077,0.0
51961.0,STARLINK-3689,PAYLOAD,2022-07-21 22:00:00,15.08824884,0.0002218,53.2157,225.2387,38.4638,125.7712,0.0024587,0.00039044,0.0,0 STARLINK-3689,1 51961U 22025F   22202.91667824  .00039044  00000-0  24587-2 0  9992,2 51961  53.2157 225.2387 0002218  38.4638 125.7712 15.08824884 22019,6917.927,95.439,541.326,538.257,0.0
51961.0,STARLINK-3689,PAYLOAD,2022-07-22 06:00:00,15.08863009,0.0002339,53.2158,223.7434,38.391,137.4383,-0.0015585999999999,-0.00025024,0.0,0 STARLINK-3689,1 51961U 22025F   22203.25001157 -.00025024  00000-0 -15586-2 0  9995,2 51961  53.2158 223.7434 0002339  38.3910 137.4383 15.08863009  1307,6917.81,95.436,541.293,538.057,0.0
51961.0,STARLINK-3689,PAYLOAD,2022-07-22 12:00:00,15.08840324,0.0002431,53.2156,222.622,35.4096,59.13399999999999,0.00092412,0.0001445,0.0,0 STARLINK-3689,1 51961U 22025F   22203.50001157  .00014450  00000-0  92412-3 0  9996,2 51961  53.2156 222.6220 0002431  35.4096  59.1340 15.08840324 22101,6917.879,95.438,541.4259999999998,538.063,0.0
51961.0,STARLINK-3689,PAYLOAD,2022-07-22 22:00:00,15.08807279,0.0002161,53.2154,220.7495,37.8418,161.2118,0.0025804,0.00040982,0.0,0 STARLINK-3689,1 51961U 22025F   22203.91667824  .00040982  00000-0  25804-2 0  9999,2 51961  53.2154 220.7495 0002161  37.8418 161.2118 15.08807279  1305,6917.98,95.44,541.34,538.35,0.0
51961.0,STARLINK-3689,PAYLOAD,2022-07-23 08:00:01,15.08830676,0.000237,53.2152,218.8808,36.995,266.5281,-0.00055406,-9.094e-05,0.0,0 STARLINK-3689,1 51961U 22025F   22204.33334491 -.00009094  00000-0 -55406-3 0  9990,2 51961  53.2152 218.8808 0002370  36.9950 266.5281 15.08830676 22223,6917.909000000002,95.438,541.413,538.134,0.0
51961.0,STARLINK-3689,PAYLOAD,2022-07-23 14:00:01,15.08832022,0.0002387,53.2148,217.7584,35.7716,186.496,-9.264e-05,-1.762e-05,0.0,0 STARLINK-3689,1 51961U 22025F   22204.58335648 -.00001762  00000-0 -92640-4 0  9998,2 51961  53.2148 217.7584 0002387  35.7716 186.4960 15.08832022  1309,6917.905,95.438,541.4209999999998,538.118,0.0
51961.0,STARLINK-3689,PAYLOAD,2022-07-23 22:00:00,15.08812261,0.0002198,53.2147,216.2605,40.2179,193.5815,0.0025756999999999,0.00040912,0.0,0 STARLINK-3689,1 51961U 22025F   22204.91667824  .00040912  00000-0  25757-2 0  9990,2 51961  53.2147 216.2605 0002198  40.2179 193.5815 15.08812261  1301,6917.965,95.439,541.351,538.31,0.0
51961.0,STARLINK-3689,PAYLOAD,2022-07-24 14:00:01,15.08842148,0.000242,53.2141,213.2694,37.6375,219.3256,-0.0007756,-0.00012612,0.0,0 STARLINK-3689,1 51961U 22025F   22205.58334491 -.00012612  00000-0 -77560-3 0  9993,2 51961  53.2141 213.2694 0002420  37.6375 219.3256 15.08842148  1309,6917.874,95.437,541.413,538.065,0.0
51961.0,STARLINK-3689,PAYLOAD,2022-07-24 22:00:00,15.08815875,0.0002273,53.214,211.7713,42.3417,226.2218,0.0025749,0.00040903,0.0,0 STARLINK-3689,1 51961U 22025F   22205.91667824  .00040903  00000-0  25749-2 0  9992,2 51961  53.2140 211.7713 0002273  42.3417 226.2218 15.08815875 22461,6917.954000000002,95.439,541.3919999999998,538.247,0.0
51961.0,STARLINK-3689,PAYLOAD,2022-07-25 14:00:01,15.08850569,0.0002494,53.2137,208.78,39.0093,252.7268,-0.0013014,-0.00020948,0.0,0 STARLINK-3689,1 51961U 22025F   22206.58334491 -.00020948  00000-0 -13014-2 0  9998,2 51961  53.2137 208.7800 0002494  39.0093 252.7268 15.08850569  1306,6917.848000000001,95.437,541.438,537.988,0.0
51961.0,STARLINK-3689,PAYLOAD,2022-07-25 22:00:00,15.08820508,0.0002376999999999,53.2137,207.282,43.92100000000001,259.4213,0.002646,0.00042053,0.0,0 STARLINK-3689,1 51961U 22025F   22206.91667824  .00042053  00000-0  26460-2 0  9992,2 51961  53.2137 207.2820 0002377  43.9210 259.4213 15.08820508  1301,6917.94,95.439,541.4490000000002,538.161,0.0
51961.0,STARLINK-3689,PAYLOAD,2022-07-26 06:00:00,15.08849507,0.0002575,53.2138,205.7871,42.1412,272.7923,-0.0011489,-0.00018532,0.0,0 STARLINK-3689,1 51961U 22025F   22207.25001157 -.00018532  00000-0 -11489-2 0  9993,2 51961  53.2138 205.7871 0002575  42.1412 272.7923 15.08849507 22664,6917.851,95.437,541.498,537.935,0.0
51961.0,STARLINK-3689,PAYLOAD,2022-07-26 14:00:01,15.08858411,0.0002602,53.2138,204.2905,40.4018,286.1242,-0.0016835,-0.00026997,0.0,0 STARLINK-3689,1 51961U 22025F   22207.58334491 -.00026997  00000-0 -16835-2 0  9993,2 51961  53.2138 204.2905 0002602  40.4018 286.1242 15.08858411  1305,6917.824000000001,95.436,541.489,537.889,0.0
51961.0,STARLINK-3689,PAYLOAD,2022-07-26 22:00:00,15.08830748,0.0002475,53.214,202.7925,44.9525,293.1843,0.0019076,0.00030195,0.0,0 STARLINK-3689,1 51961U 22025F   22207.91667824  .00030195  00000-0  19076-2 0  9992,2 51961  53.2140 202.7925 0002475  44.9525 293.1843 15.08830748  1301,6917.909000000002,95.438,541.486,538.061,0.0
51961.0,STARLINK-3689,PAYLOAD,2022-07-27 06:00:02,15.08828901,0.0002633,53.2141,201.2977,41.5606,308.2095,-0.0010747,-0.00017347,0.0,0 STARLINK-3689,1 51961U 22025F   22208.25002315 -.00017347  00000-0 -10747-2 0  9990,2 51961  53.2141 201.2977 0002633  41.5606 308.2095 15.08828901 22816,6917.9140000000025,95.438,541.601,537.9580000000002,0.0
51961.0,STARLINK-3689,PAYLOAD,2022-07-27 14:00:01,15.08839504,0.0002631,53.2142,199.801,40.2037,321.0682,-0.001861,-0.00029786,0.0,0 STARLINK-3689,1 51961U 22025F   22208.58334491 -.00029786  00000-0 -18610-2 0  9996,2 51961  53.2142 199.8010 0002631  40.2037 321.0682 15.08839504  1306,6917.882,95.438,541.567,537.927,0.0
51961.0,STARLINK-3689,PAYLOAD,2022-07-27 22:00:00,15.0881012,0.0002519,53.2146,198.3033,45.1159,327.7432,0.0024693,0.00039199,0.0,0 STARLINK-3689,1 51961U 22025F   22208.91667824  .00039199  00000-0  24693-2 0  9997,2 51961  53.2146 198.3033 0002519  45.1159 327.7432 15.08810120  1302,6917.972,95.439,541.5790000000002,538.094,0.0
